NORAD_CAT_ID,OBJECT_NAME,OBJECT_TYPE,EPOCH,MEAN_MOTION,ECCENTRICITY,INCLINATION,RA_OF_ASC_NODE,ARG_OF_PERICENTER,MEAN_ANOMALY,BSTAR,MEAN_MOTION_DOT,MEAN_MOTION_DDOT,TLE_LINE0,TLE_LINE1,TLE_LINE2,SEMIMAJOR_AXIS,PERIOD,APOGEE,PERIGEE,DECAYED
52095.0,STARLINK-3701,PAYLOAD,2023-11-13 07:45:01,15.08852394,0.0001641,53.2173,293.0968,87.3692,272.7488,0.00035256,5.329e-05,0.0,0 STARLINK-3701,1 52095U 22029H   23317.32293007  .00005329  00000-0  35256-3 0  9991,2 52095  53.2173 293.0968 0001641  87.3692 272.7488 15.08852394 92732,6917.843,95.437,540.843,538.572,0.0
52095.0,STARLINK-3701,PAYLOAD,2023-11-13 15:41:57,15.08843754,0.0001784,53.2181,291.6103,83.4654,276.6541,0.00012634,1.723e-05,0.0,0 STARLINK-3701,1 52095U 22029H   23317.65413327  .00001723  00000-0  12634-3 0  9995,2 52095  53.2181 291.6103 0001784  83.4654 276.6541 15.08843754 92787,6917.869,95.437,540.968,538.5,0.0
52095.0,STARLINK-3701,PAYLOAD,2023-11-14 06:00:25,15.08843796,0.0001516,53.2166,288.9338,85.7675,274.349,0.00010444,1.375e-05,0.0,0 STARLINK-3701,1 52095U 22029H   23318.25029220  .00001375  00000-0  10444-3 0  9997,2 52095  53.2166 288.9338 0001516  85.7675 274.3490 15.08843796 92874,6917.869,95.437,540.783,538.685,0.0
52095.0,STARLINK-3701,PAYLOAD,2023-11-14 21:54:16,15.08841927,0.0001638,53.2168,285.9624,88.7068,271.4112,0.00012126,1.642e-05,0.0,0 STARLINK-3701,1 52095U 22029H   23318.91269450  .00001642  00000-0  12126-3 0  9997,2 52095  53.2168 285.9624 0001638  88.7068 271.4112 15.08841927 92979,6917.874,95.437,540.873,538.606,0.0
52095.0,STARLINK-3701,PAYLOAD,2023-11-15 02:40:26,15.08843439,0.0001643,53.2171,285.0713,86.9032,273.2148,0.00014293,1.988e-05,0.0,0 STARLINK-3701,1 52095U 22029H   23319.11141424  .00001988  00000-0  14293-3 0  9990,2 52095  53.2171 285.0713 0001643  86.9032 273.2148 15.08843439 93004,6917.87,95.437,540.871,538.598,0.0
52095.0,STARLINK-3701,PAYLOAD,2023-11-15 04:15:49,15.08844783,0.0001613,53.2169,284.7739,86.9788,273.1388,0.00012432,1.691e-05,0.0,0 STARLINK-3701,1 52095U 22029H   23319.17765303  .00001691  00000-0  12432-3 0  9998,2 52095  53.2169 284.7739 0001613  86.9788 273.1388 15.08844783 93019,6917.866,95.437,540.847,538.615,0.0
52095.0,STARLINK-3701,PAYLOAD,2023-11-15 21:45:04,15.08836952,0.0001645,53.2171,281.5039,83.0858,277.0321,0.00020477,2.972e-05,0.0,0 STARLINK-3701,1 52095U 22029H   23319.90629927  .00002972  00000-0  20477-3 0  9991,2 52095  53.2171 281.5039 0001645  83.0858 277.0321 15.08836952 93122,6917.89,95.438,540.893,538.617,0.0
52095.0,STARLINK-3701,PAYLOAD,2023-11-16 02:31:13,15.08840901,0.0001638,53.2172,280.6113,83.9392,276.1787,4.9843e-06,-2.09e-06,0.0,0 STARLINK-3701,1 52095U 22029H   23320.10501703 -.00000209  00000-0  49843-5 0  9998,2 52095  53.2172 280.6113 0001638  83.9392 276.1787 15.08840901 93158,6917.878,95.437,540.876,538.609,0.0
52095.0,STARLINK-3701,PAYLOAD,2023-11-16 04:06:36,15.08838036,0.0001614,53.2173,280.3143,84.3733,275.7444,6.7217e-05,7.82e-06,0.0,0 STARLINK-3701,1 52095U 22029H   23320.17125885  .00000782  00000-0  67217-4 0  9997,2 52095  53.2173 280.3143 0001614  84.3733 275.7444 15.08838036 93169,6917.886,95.438,540.868,538.635,0.0
52095.0,STARLINK-3701,PAYLOAD,2023-11-16 21:35:51,15.08841646,0.0001623,53.2173,277.0433,85.2959,274.8218,0.00012796,1.749e-05,0.0,0 STARLINK-3701,1 52095U 22029H   23320.89989762  .00001749  00000-0  12796-3 0  9993,2 52095  53.2173 277.0433 0001623  85.2959 274.8218 15.08841646 93276,6917.875,95.437,540.863,538.618,0.0
52095.0,STARLINK-3701,PAYLOAD,2023-11-17 03:57:23,15.08844062,0.0001555,53.2187,275.8539,98.2852,261.8316,0.00011124,1.483e-05,0.0,0 STARLINK-3701,1 52095U 22029H   23321.16485387  .00001483  00000-0  11124-3 0  9997,2 52095  53.2187 275.8539 0001555  98.2852 261.8316 15.08844062 93319,6917.868,95.437,540.809,538.657,0.0
52095.0,STARLINK-3701,PAYLOAD,2023-11-17 07:08:09,15.08846205,0.0001505,53.2179,275.258,97.0524,263.0639,0.00012141,1.645e-05,0.0,0 STARLINK-3701,1 52095U 22029H   23321.29733192  .00001645  00000-0  12141-3 0  9991,2 52095  53.2179 275.2580 0001505  97.0524 263.0639 15.08846205 93333,6917.861,95.437,540.768,538.685,0.0
52095.0,STARLINK-3701,PAYLOAD,2023-11-18 03:48:11,15.08833652,0.0001509,53.218,271.3905,94.7,265.4165,3.1051e-05,2.06e-06,0.0,0 STARLINK-3701,1 52095U 22029H   23322.15846380  .00000206  00000-0  31051-4 0  9995,2 52095  53.2180 271.3905 0001509  94.7000 265.4165 15.08833652 93466,6917.9,95.438,540.809,538.721,0.0
52095.0,STARLINK-3701,PAYLOAD,2023-11-18 13:20:29,15.08837366,0.0001504,53.2182,269.6064,94.3468,265.7696,6.5218e-05,7.5e-06,0.0,0 STARLINK-3701,1 52095U 22029H   23322.55590189  .00000750  00000-0  65218-4 0  9998,2 52095  53.2182 269.6064 0001504  94.3468 265.7696 15.08837366 93528,6917.888,95.438,540.794,538.713,0.0
52095.0,STARLINK-3701,PAYLOAD,2023-11-19 02:03:34,15.08844342,0.0001458,53.2179,267.2268,93.0781,267.0378,5.7122e-05,6.21e-06,0.0,0 STARLINK-3701,1 52095U 22029H   23323.08581686  .00000621  00000-0  57122-4 0  9991,2 52095  53.2179 267.2268 0001458  93.0781 267.0378 15.08844342 93609,6917.867,95.437,540.741,538.723,0.0
52095.0,STARLINK-3701,PAYLOAD,2023-11-19 13:11:16,15.08847268,0.000144,53.2182,265.1462,85.7922,274.3235,7.9731e-05,9.81e-06,0.0,0 STARLINK-3701,1 52095U 22029H   23323.54949438  .00000981  00000-0  79731-4 0  9994,2 52095  53.2182 265.1462 0001440  85.7922 274.3235 15.08847268 93672,6917.858,95.437,540.719,538.727,0.0
52095.0,STARLINK-3701,PAYLOAD,2023-11-19 19:32:49,15.08839581,0.000167,53.219,263.9602,92.2901,267.8282,0.00013906,1.926e-05,0.0,0 STARLINK-3701,1 52095U 22029H   23323.81445903  .00001926  00000-0  13906-3 0  9993,2 52095  53.2190 263.9602 0001670  92.2901 267.8282 15.08839581 93711,6917.882,95.438,540.902,538.591,0.0
52095.0,STARLINK-3701,PAYLOAD,2023-11-20 03:29:45,15.08837998,0.0001622,53.2188,262.4718,84.7775,275.3403,7.3807e-05,8.87e-06,0.0,0 STARLINK-3701,1 52095U 22029H   23324.14566186  .00000887  00000-0  73807-4 0  9999,2 52095  53.2188 262.4718 0001622  84.7775 275.3403 15.08837998 93766,6917.887,95.438,540.874,538.629,0.0
52095.0,STARLINK-3701,PAYLOAD,2023-11-20 13:02:03,15.08840819,0.0001462,53.2177,260.6855,86.5866,273.5294,7.9375e-05,9.76e-06,0.0,0 STARLINK-3701,1 52095U 22029H   23324.54309990  .00000976  00000-0  79375-4 0  9996,2 52095  53.2177 260.6855 0001462  86.5866 273.5294 15.08840819 93820,6917.878,95.438,540.754,538.731,0.0
52095.0,STARLINK-3701,PAYLOAD,2023-11-21 03:20:31,15.08851343,0.0001577,53.2179,258.0099,95.7041,264.4131,7.7238e-05,9.42e-06,0.0,0 STARLINK-3701,1 52095U 22029H   23325.13925192  .00000942  00000-0  77238-4 0  9999,2 52095  53.2179 258.0099 0001577  95.7041 264.4131 15.08851343 93910,6917.846,95.437,540.802,538.62,0.0
52095.0,STARLINK-3701,PAYLOAD,2023-11-21 06:31:17,15.08854102,0.0001587,53.2179,257.4148,95.8594,264.2579,0.00010579,1.397e-05,0.0,0 STARLINK-3701,1 52095U 22029H   23325.27172961  .00001397  00000-0  10579-3 0  9991,2 52095  53.2179 257.4148 0001587  95.8594 264.2579 15.08854102 93935,6917.837,95.437,540.8,538.604,0.0
52095.0,STARLINK-3701,PAYLOAD,2023-11-21 19:14:23,15.08839116,0.0001793,53.2177,255.037,84.6474,275.4722,8.6029e-05,1.081e-05,0.0,0 STARLINK-3701,1 52095U 22029H   23325.80166090  .00001081  00000-0  86029-4 0  9990,2 52095  53.2177 255.0370 0001793  84.6474 275.4722 15.08839116 94018,6917.883,95.438,540.988,538.508,0.0
52095.0,STARLINK-3701,PAYLOAD,2023-11-22 01:35:55,15.08843835,0.0001553,53.2163,253.8472,91.3866,268.7304,0.00010792,1.43e-05,0.0,0 STARLINK-3701,1 52095U 22029H   23326.06661627  .00001430  00000-0  10792-3 0  9996,2 52095  53.2163 253.8472 0001553  91.3866 268.7304 15.08843835 94054,6917.869,95.437,540.808,538.659,0.0
52095.0,STARLINK-3701,PAYLOAD,2023-11-22 19:05:09,15.08849335,0.0001498,53.2159,250.5762,94.7726,265.3437,0.00018879,2.719e-05,0.0,0 STARLINK-3701,1 52095U 22029H   23326.79525224  .00002719  00000-0  18879-3 0  9993,2 52095  53.2159 250.5762 0001498  94.7726 265.3437 15.08849335 94168,6917.852,95.437,540.753,538.681,0.0
52095.0,STARLINK-3701,PAYLOAD,2023-11-23 01:26:42,15.08856266,0.0001662,53.2163,249.3878,87.6776,272.4406,0.00031733,4.768e-05,0.0,0 STARLINK-3701,1 52095U 22029H   23327.06020992  .00004768  00000-0  31733-3 0  9996,2 52095  53.2163 249.3878 0001662  87.6776 272.4406 15.08856266 94207,6917.831,95.437,540.845,538.546,0.0
52095.0,STARLINK-3701,PAYLOAD,2023-11-23 22:06:43,15.0883336,0.0001593,53.217,245.5231,103.9412,256.1758,-2.8004e-05,-7.34e-06,0.0,0 STARLINK-3701,1 52095U 22029H   23327.92134115 -.00000734  00000-0 -28004-4 0  9993,2 52095  53.2170 245.5231 0001593 103.9412 256.1758 15.08833360 94331,6917.901,95.438,540.868,538.664,0.0
52095.0,STARLINK-3701,PAYLOAD,2023-11-24 01:17:30,15.08831611,0.0001689,53.2167,244.9281,112.9405,247.1766,-6.1654e-05,-1.269e-05,0.0,0 STARLINK-3701,1 52095U 22029H   23328.05382124 -.00001269  00000-0 -61654-4 0  9995,2 52095  53.2167 244.9281 0001689 112.9405 247.1766 15.08831611 94351,6917.906,95.438,540.939,538.603,0.0
52095.0,STARLINK-3701,PAYLOAD,2023-11-24 04:28:16,15.08831502,0.0001509,53.2157,244.3305,107.8891,252.2266,2.7733e-06,-2.44e-06,0.0,0 STARLINK-3701,1 52095U 22029H   23328.18630238 -.00000244  00000-0  27733-5 0  9993,2 52095  53.2157 244.3305 0001509 107.8891 252.2266 15.08831502 94377,6917.906,95.438,540.815,538.727,0.0
52095.0,STARLINK-3701,PAYLOAD,2023-11-24 21:57:31,15.08838166,0.0001433,53.2163,241.0591,105.9852,254.1298,0.00014077,1.953e-05,0.0,0 STARLINK-3701,1 52095U 22029H   23328.91494489  .00001953  00000-0  14077-3 0  9992,2 52095  53.2163 241.0591 0001433 105.9852 254.1298 15.08838166 94488,6917.886,95.438,540.742,538.76,0.0
52095.0,STARLINK-3701,PAYLOAD,2023-11-25 01:08:17,15.08843007,0.0001679,53.2176,240.4641,92.948,267.1705,0.00047807,7.329e-05,0.0,0 STARLINK-3701,1 52095U 22029H   23329.04742375  .00007329  00000-0  47807-3 0  9997,2 52095  53.2176 240.4641 0001679  92.9480 267.1705 15.08843007 94505,6917.871,95.437,540.898,538.575,0.0
